start=new Date('2021-09-13T00:00:00.000Z').valueOf();
sats=[{"INCLINATION":"53.0544","DECAY_DATE":null,"PERIAPSIS":"343.236","EPHEMERIS_TYPE":"0","LAUNCH_DATE":"2021-03-24","ARG_OF_PERICENTER":"342.6470","MEAN_ANOMALY":"110.9133","OBJECT_ID":"2021-024BA","MEAN_MOTION_DDOT":"0.0000000000000","FILE":"3114195","MEAN_ELEMENT_THEORY":"SGP4","TLE_LINE1":"1 48025U 21024BA  21255.91667824  .00686441  00000-0  42506-2 0  9994","RCS_SIZE":"LARGE","REV_AT_EPOCH":"370","OBJECT_NAME":"STARLINK-2318","SITE":"AFETR","PERIOD":"91.454","APOAPSIS":"348.485","CENTER_NAME":"EARTH","SEMIMAJOR_AXIS":"6723.996","NORAD_CAT_ID":"48025","ECCENTRICITY":"0.00039030","EPOCH":"2021-09-12T22:00:00.999936","RA_OF_ASC_NODE":"66.8751","OBJECT_TYPE":"PAYLOAD","GP_ID":"184601093","TLE_LINE2":"2 48025  53.0544  66.8751 0003903 342.6470 110.9133 15.74568674  3707","TIME_SYSTEM":"UTC","CLASSIFICATION_TYPE":"U","REF_FRAME":"TEME","ELEMENT_SET_NO":"999","MEAN_MOTION_DOT":"0.00686441","COUNTRY_CODE":"US","BSTAR":"0.00425060000000","MEAN_MOTION":"15.74568674"},{"DECAY_DATE":null,"PERIAPSIS":"550.644","EPHEMERIS_TYPE":"0","INCLINATION":"53.0515","OBJECT_ID":"2021-024BB","MEAN_MOTION_DDOT":"0.0000000000000","LAUNCH_DATE":"2021-03-24","ARG_OF_PERICENTER":"74.9584","MEAN_ANOMALY":"264.3107","TLE_LINE1":"1 48026U 21024BB  21255.91667824 -.00018990  00000-0 -13164-2 0  9993","MEAN_ELEMENT_THEORY":"SGP4","RCS_SIZE":"LARGE","FILE":"3114195","SITE":"AFETR","PERIOD":"95.696","REV_AT_EPOCH":"358","OBJECT_NAME":"STARLINK-2278","CENTER_NAME":"EARTH","SEMIMAJOR_AXIS":"6930.377","NORAD_CAT_ID":"48026","APOAPSIS":"553.840","GP_ID":"184599354","ECCENTRICITY":"0.00023060","EPOCH":"2021-09-12T22:00:00.999936","RA_OF_ASC_NODE":"133.4869","OBJECT_TYPE":"PAYLOAD","REF_FRAME":"TEME","ELEMENT_SET_NO":"999","TIME_SYSTEM":"UTC","TLE_LINE2":"2 48026  53.0515 133.4869 0002306  74.9584 264.3107 15.04760723  3587","CLASSIFICATION_TYPE":"U","BSTAR":"-0.00131640000000","MEAN_MOTION":"15.04760723","COUNTRY_CODE":"US","MEAN_MOTION_DOT":"-0.00018990"},{"EPHEMERIS_TYPE":"0","PERIAPSIS":"545.980","DECAY_DATE":null,"INCLINATION":"53.0540","MEAN_MOTION_DDOT":"0.0000000000000","OBJECT_ID":"2021-024BC","MEAN_ANOMALY":"54.0118","ARG_OF_PERICENTER":"71.9638","LAUNCH_DATE":"2021-03-24","RCS_SIZE":"LARGE","MEAN_ELEMENT_THEORY":"SGP4","TLE_LINE1":"1 48027U 21024BC  21255.91667824 -.00002867  00000-0 -17372-3 0  9996","FILE":"3114195","SITE":"AFETR","PERIOD":"95.593","OBJECT_NAME":"STARLINK-2300","REV_AT_EPOCH":"359","SEMIMAJOR_AXIS":"6925.404","NORAD_CAT_ID":"48027","CENTER_NAME":"EARTH","APOAPSIS":"548.557","GP_ID":"184599604","RA_OF_ASC_NODE":"108.3497","OBJECT_TYPE":"PAYLOAD","EPOCH":"2021-09-12T22:00:00.999936","ECCENTRICITY":"0.00018610","ELEMENT_SET_NO":"999","REF_FRAME":"TEME","CLASSIFICATION_TYPE":"U","TIME_SYSTEM":"UTC","TLE_LINE2":"2 48027  53.0540 108.3497 0001861  71.9638  54.0118 15.06382058  3596","MEAN_MOTION":"15.06382058","BSTAR":"-0.00017372000000","COUNTRY_CODE":"US","MEAN_MOTION_DOT":"-0.00002867"},{"SITE":"AFETR","PERIOD":"92.633","REV_AT_EPOCH":"370","OBJECT_NAME":"STARLINK-2264","TLE_LINE1":"1 48028U 21024BD  21255.91667824 -.00939257  00000-0 -15469-1 0  9992","MEAN_ELEMENT_THEORY":"SGP4","RCS_SIZE":"LARGE","FILE":"3114195","OBJECT_ID":"2021-024BD","MEAN_MOTION_DDOT":"0.0000000000000","LAUNCH_DATE":"2021-03-24","ARG_OF_PERICENTER":"50.8302","MEAN_ANOMALY":"96.6379","DECAY_DATE":null,"PERIAPSIS":"402.539","EPHEMERIS_TYPE":"0","INCLINATION":"53.0430","BSTAR":"-0.01546900000000","MEAN_MOTION":"15.54521128","MEAN_MOTION_DOT":"-0.00939257","COUNTRY_CODE":"US","REF_FRAME":"TEME","ELEMENT_SET_NO":"999","TLE_LINE2":"2 48028  53.0430  67.4149 0001487  50.8302  96.6379 15.54521128  3702","TIME_SYSTEM":"UTC","CLASSIFICATION_TYPE":"U","GP_ID":"184600856","ECCENTRICITY":"0.00014870","EPOCH":"2021-09-12T22:00:00.999936","RA_OF_ASC_NODE":"67.4149","OBJECT_TYPE":"PAYLOAD","CENTER_NAME":"EARTH","SEMIMAJOR_AXIS":"6781.682","NORAD_CAT_ID":"48028","APOAPSIS":"404.555"},{"MEAN_ELEMENT_THEORY":"SGP4","TLE_LINE1":"1 48029U 21024BE  21255.91667824 -.00012514  00000-0 -82272-3 0  9999","RCS_SIZE":"LARGE","FILE":"3114195","SITE":"AFETR","PERIOD":"95.592","REV_AT_EPOCH":"359","OBJECT_NAME":"STARLINK-2299","DECAY_DATE":null,"EPHEMERIS_TYPE":"0","PERIAPSIS":"545.657","INCLINATION":"53.0547","OBJECT_ID":"2021-024BE","MEAN_MOTION_DDOT":"0.0000000000000","MEAN_ANOMALY":"203.8777","ARG_OF_PERICENTER":"72.0872","LAUNCH_DATE":"2021-03-24","REF_FRAME":"TEME","ELEMENT_SET_NO":"999","CLASSIFICATION_TYPE":"U","TIME_SYSTEM":"UTC","TLE_LINE2":"2 48029  53.0547 128.3571 0002266  72.0872 203.8777 15.06395800  3596","BSTAR":"-0.00082272000000","MEAN_MOTION":"15.06395800","MEAN_MOTION_DOT":"-0.00012514","COUNTRY_CODE":"US","CENTER_NAME":"EARTH","SEMIMAJOR_AXIS":"6925.361","NORAD_CAT_ID":"48029","APOAPSIS":"548.796","GP_ID":"184600593","ECCENTRICITY":"0.00022660","RA_OF_ASC_NODE":"128.3571","OBJECT_TYPE":"PAYLOAD","EPOCH":"2021-09-12T22:00:00.999936"},{"EPHEMERIS_TYPE":"0","PERIAPSIS":"546.048","DECAY_DATE":null,"INCLINATION":"53.0529","MEAN_MOTION_DDOT":"0.0000000000000","OBJECT_ID":"2021-024BF","ARG_OF_PERICENTER":"84.3820","LAUNCH_DATE":"2021-03-24","MEAN_ANOMALY":"44.1148","RCS_SIZE":"LARGE","TLE_LINE1":"1 48030U 21024BF  21255.91667824 -.00020662  00000-0 -13727-2 0  9992","MEAN_ELEMENT_THEORY":"SGP4","FILE":"3114195","PERIOD":"95.593","SITE":"AFETR","OBJECT_NAME":"STARLINK-2268","REV_AT_EPOCH":"359","SEMIMAJOR_AXIS":"6925.386","NORAD_CAT_ID":"48030","CENTER_NAME":"EARTH","APOAPSIS":"548.455","GP_ID":"184599855","EPOCH":"2021-09-12T22:00:00.999936","OBJECT_TYPE":"PAYLOAD","RA_OF_ASC_NODE":"133.3451","ECCENTRICITY":"0.00017380","ELEMENT_SET_NO":"999","REF_FRAME":"TEME","TLE_LINE2":"2 48030  53.0529 133.3451 0001738  84.3820  44.1148 15.06387693  3592","TIME_SYSTEM":"UTC","CLASSIFICATION_TYPE":"U","MEAN_MOTION":"15.06387693","BSTAR":"-0.00137270000000","COUNTRY_CODE":"US","MEAN_MOTION_DOT":"-0.00020662"},{"INCLINATION":"53.0454","DECAY_DATE":null,"PERIAPSIS":"347.047","EPHEMERIS_TYPE":"0","LAUNCH_DATE":"2021-03-24","ARG_OF_PERICENTER":"355.4186","MEAN_ANOMALY":"99.4981","OBJECT_ID":"2021-024BG","MEAN_MOTION_DDOT":"0.0000000000000","FILE":"3114195","TLE_LINE1":"1 48031U 21024BG  21255.91667824  .00095867  00000-0  67999-3 0  9991","MEAN_ELEMENT_THEORY":"SGP4","RCS_SIZE":"LARGE","REV_AT_EPOCH":"370","OBJECT_NAME":"STARLINK-2267","PERIOD":"91.534","SITE":"AFETR","APOAPSIS":"352.599","CENTER_NAME":"EARTH","SEMIMAJOR_AXIS":"6727.958","NORAD_CAT_ID":"48031","ECCENTRICITY":"0.00041260","EPOCH":"2021-09-12T22:00:00.999936","OBJECT_TYPE":"PAYLOAD","RA_OF_ASC_NODE":"66.8658","GP_ID":"184600105","TIME_SYSTEM":"UTC","TLE_LINE2":"2 48031  53.0454  66.8658 0004126 355.4186  99.4981 15.73178082  3705","CLASSIFICATION_TYPE":"U","REF_FRAME":"TEME","ELEMENT_SET_NO":"999","MEAN_MOTION_DOT":"0.00095867","COUNTRY_CODE":"US","BSTAR":"0.00067999000000","MEAN_MOTION":"15.73178082"},{"FILE":"3114195","TLE_LINE1":"1 48032U 21024BH  21255.91667824  .00052776  00000-0  37818-3 0  9991","MEAN_ELEMENT_THEORY":"SGP4","RCS_SIZE":"LARGE","REV_AT_EPOCH":"370","OBJECT_NAME":"STARLINK-2297","PERIOD":"91.534","SITE":"AFETR","INCLINATION":"53.0453","DECAY_DATE":null,"EPHEMERIS_TYPE":"0","PERIAPSIS":"347.138","LAUNCH_DATE":"2021-03-24","ARG_OF_PERICENTER":"4.5543","MEAN_ANOMALY":"91.2031","OBJECT_ID":"2021-024BH","MEAN_MOTION_DDOT":"0.0000000000000","TIME_SYSTEM":"UTC","TLE_LINE2":"2 48032  53.0453  66.8617 0003969   4.5543  91.2031 15.73183170  3703","CLASSIFICATION_TYPE":"U","REF_FRAME":"TEME","ELEMENT_SET_NO":"999","MEAN_MOTION_DOT":"0.00052776","COUNTRY_CODE":"US","BSTAR":"0.00037818000000","MEAN_MOTION":"15.73183170","APOAPSIS":"352.478","CENTER_NAME":"EARTH","SEMIMAJOR_AXIS":"6727.943","NORAD_CAT_ID":"48032","ECCENTRICITY":"0.00039690","EPOCH":"2021-09-12T22:00:00.999936","RA_OF_ASC_NODE":"66.8617","OBJECT_TYPE":"PAYLOAD","GP_ID":"184600356"},{"APOAPSIS":"548.758","NORAD_CAT_ID":"48033","SEMIMAJOR_AXIS":"6925.401","CENTER_NAME":"EARTH","RA_OF_ASC_NODE":"128.3655","OBJECT_TYPE":"PAYLOAD","EPOCH":"2021-09-12T22:00:00.999936","ECCENTRICITY":"0.00021550","GP_ID":"184601094","CLASSIFICATION_TYPE":"U","TLE_LINE2":"2 48033  53.0543 128.3655 0002155  71.0032 210.1112 15.06382914  3590","TIME_SYSTEM":"UTC","ELEMENT_SET_NO":"999","REF_FRAME":"TEME","MEAN_MOTION_DOT":"-0.00012818","COUNTRY_CODE":"US","MEAN_MOTION":"15.06382914","BSTAR":"-0.00084352000000","INCLINATION":"53.0543","EPHEMERIS_TYPE":"0","PERIAPSIS":"545.774","DECAY_DATE":null,"MEAN_ANOMALY":"210.1112","LAUNCH_DATE":"2021-03-24","ARG_OF_PERICENTER":"71.0032","MEAN_MOTION_DDOT":"0.0000000000000","OBJECT_ID":"2021-024BJ","FILE":"3114195","RCS_SIZE":"LARGE","MEAN_ELEMENT_THEORY":"SGP4","TLE_LINE1":"1 48033U 21024BJ  21255.91667824 -.00012818  00000-0 -84352-3 0  9992","OBJECT_NAME":"STARLINK-2286","REV_AT_EPOCH":"359","PERIOD":"95.593","SITE":"AFETR"},{"MEAN_ANOMALY":"162.2958","ARG_OF_PERICENTER":"73.6951","LAUNCH_DATE":"2021-03-24","MEAN_MOTION_DDOT":"0.0000000000000","OBJECT_ID":"2021-024BK","INCLINATION":"53.0545","EPHEMERIS_TYPE":"0","PERIAPSIS":"545.944","DECAY_DATE":null,"OBJECT_NAME":"STARLINK-2288","REV_AT_EPOCH":"359","SITE":"AFETR","PERIOD":"95.593","FILE":"3114195","RCS_SIZE":"LARGE","TLE_LINE1":"1 48034U 21024BK  21255.91667824 -.00022105  00000-0 -14701-2 0  9993","MEAN_ELEMENT_THEORY":"SGP4","RA_OF_ASC_NODE":"128.3531","OBJECT_TYPE":"PAYLOAD","EPOCH":"2021-09-12T22:00:00.999936","ECCENTRICITY":"0.00018860","GP_ID":"184599355","APOAPSIS":"548.556","SEMIMAJOR_AXIS":"6925.385","NORAD_CAT_ID":"48034","CENTER_NAME":"EARTH","MEAN_MOTION_DOT":"-0.00022105","COUNTRY_CODE":"US","MEAN_MOTION":"15.06388149","BSTAR":"-0.00147010000000","CLASSIFICATION_TYPE":"U","TLE_LINE2":"2 48034  53.0545 128.3531 0001886  73.6951 162.2958 15.06388149  3595","TIME_SYSTEM":"UTC","ELEMENT_SET_NO":"999","REF_FRAME":"TEME"}];
